OBJECT_NAME,OBJECT_ID,EPOCH,MEAN_MOTION,ECCENTRICITY,INCLINATION,RA_OF_ASC_NODE,ARG_OF_PERICENTER,MEAN_ANOMALY,EPHEMERIS_TYPE,CLASSIFICATION_TYPE,NORAD_CAT_ID,ELEMENT_SET_NO,REV_AT_EPOCH,BSTAR,MEAN_MOTION_DOT,MEAN_MOTION_DDOT
STARLINK-2308,2021-024J,2023-02-02T03:18:21.212064,15.06395407,.0001301,53.0527,311.5252,96.1434,263.9704,0,U,47985,999,10439,.22621E-4,.56E-6,0
STARLINK-2305,2021-024N,2023-02-02T02:57:45.196128,15.06395674,.0001459,53.0533,286.4304,92.1724,267.9432,0,U,47989,999,10473,-.15417E-4,-.511E-5,0
STARLINK-2307,2021-024P,2023-02-02T03:24:17.402112,15.06397870,.0001369,53.0548,286.3287,90.8621,269.2525,0,U,47990,999,10473,.33624E-5,-.231E-5,0
STARLINK-2279,2021-024Q,2023-02-02T00:29:47.746464,15.06400983,.0001147,53.0521,301.8983,87.8003,272.3117,0,U,47991,999,10450,-.48928E-5,-.354E-5,0
STARLINK-2229,2021-024R,2023-02-02T02:35:11.383296,15.06411455,.0001465,53.0511,296.5836,93.4604,266.6552,0,U,47992,999,10459,.19293E-3,.2594E-4,0
STARLINK-2273,2021-024S,2023-02-02T02:45:48.459744,15.06398154,.0001465,53.0544,336.4529,103.9790,256.1362,0,U,47993,999,10404,-.14019E-4,-.49E-5,0
STARLINK-2290,2021-024T,2023-02-02T02:51:47.567520,15.06402833,.0001493,53.0540,351.4411,120.6274,239.4862,0,U,47994,999,10383,.25268E-3,.3484E-4,0
STARLINK-2309,2021-024U,2023-02-01T17:31:12.375840,15.06395844,.0001403,53.0552,318.4995,90.6682,269.4468,0,U,47995,999,10426,-.11532E-3,-.1998E-4,0
STARLINK-2260,2021-024V,2023-02-01T20:07:07.476672,15.06392250,.0001259,53.0507,243.0034,95.4674,264.6458,0,U,47996,999,10533,.12056E-4,-.102E-5,0
STARLINK-2266,2021-024W,2023-02-02T04:00:47.064960,15.06399225,.0001264,53.0564,351.2159,98.5238,261.5894,0,U,47997,999,10384,.8817E-4,.1032E-4,0
STARLINK-2296,2021-024X,2023-02-02T02:36:33.870240,15.06396162,.0001826,53.0552,326.7354,96.6951,263.4246,0,U,47998,999,10417,-.10257E-4,-.434E-5,0
STARLINK-2218,2021-024Y,2023-02-02T03:00:22.465728,15.06396792,.0001604,53.0554,296.4046,92.7563,267.3610,0,U,47999,999,10459,.29484E-4,.158E-5,0
STARLINK-2270,2021-024Z,2023-02-02T01:20:15.537696,15.06395059,.000128,53.0522,281.9291,112.8833,247.2291,0,U,48000,999,10480,-.39083E-4,-.863E-5,0
STARLINK-2265,2021-024AB,2023-02-02T03:35:36.929472,15.06401856,.0001468,53.0539,301.6230,99.3063,260.8092,0,U,48002,999,10452,.77232E-4,.869E-5,0
STARLINK-2263,2021-024AC,2023-02-02T03:17:39.297696,15.06395535,.0001407,53.0542,16.3564,96.5967,263.5182,0,U,48003,999,10347,.15549E-4,-.5E-6,0
STARLINK-2254,2021-024AE,2023-02-02T02:44:29.097024,15.06397843,.000152,53.0560,346.4588,97.8651,262.2511,0,U,48005,999,10390,.69266E-4,.75E-5,0
STARLINK-2271,2021-024AH,2023-02-02T01:40:05.433312,15.06398019,.0001017,53.0517,281.6659,94.9868,265.1237,0,U,48008,999,10480,.61426E-4,.634E-5,0
STARLINK-2153,2021-024AJ,2023-02-02T03:04:23.360160,15.06390171,.0001378,53.0532,356.4029,92.2889,267.8258,0,U,48009,999,10376,-.80588E-4,-.1481E-4,0
STARLINK-2226,2021-024AK,2023-02-02T03:22:57.926208,15.06396675,.0001436,53.0534,16.3443,88.4649,271.6504,0,U,48010,999,10347,.1529E-3,.1996E-4,0
STARLINK-2272,2021-024AL,2023-02-02T02:20:33.658656,15.06394634,.0001712,53.0543,356.5362,95.7733,264.3451,0,U,48011,999,10376,-.7897E-4,-.1457E-4,0
STARLINK-2216,2021-024AM,2023-02-01T19:55:04.620576,15.63334691,.0003432,53.0454,230.8537,148.3121,211.8100,0,U,48012,999,10550,.76855E-3,.72106E-3,0
STARLINK-2243,2021-024AN,2023-02-02T02:53:06.181152,15.06401669,.0001585,53.0549,341.4352,98.5676,261.5492,0,U,48013,999,10397,.48816E-4,.446E-5,0
STARLINK-2283,2021-024AP,2023-02-02T03:16:21.542016,15.06399026,.0001239,53.0523,306.5293,93.0456,267.0674,0,U,48014,999,10445,.44682E-4,.384E-5,0
STARLINK-2284,2021-024AR,2023-02-01T16:49:23.073600,15.06397623,.000207,53.0539,293.5280,121.7686,238.3505,0,U,48016,999,10459,.1347E-3,.1725E-4,0
STARLINK-2282,2021-024AT,2023-02-02T03:43:34.011264,15.06398381,.0001571,53.0545,1.4799,100.5993,259.5173,0,U,48018,999,10369,.67356E-4,.722E-5,0
STARLINK-2285,2021-024AU,2023-02-02T04:06:05.423904,15.06395234,.0001353,53.0562,351.2023,92.2720,267.8424,0,U,48019,999,10384,-.64552E-4,-.1243E-4,0
STARLINK-2294,2021-024AV,2023-02-02T03:32:18.767616,15.06409122,.0001364,53.0520,306.7133,94.8850,265.2294,0,U,48020,999,10445,.21985E-3,.2995E-4,0
STARLINK-2301,2021-024AW,2023-02-02T02:14:37.201632,15.06406644,.0001368,53.0533,311.5566,94.1929,265.9217,0,U,48021,999,10439,.16318E-3,.215E-4,0
STARLINK-2298,2021-024AX,2023-02-02T02:54:29.097504,15.06395723,.0001692,53.0544,11.7068,106.3149,253.8027,0,U,48022,999,10354,.32767E-4,.206E-5,0
STARLINK-2292,2021-024AY,2023-02-01T18:40:49.299168,15.06391267,.0001258,53.0553,12.9716,100.2192,259.8939,0,U,48023,999,10349,.51705E-4,.489E-5,0
STARLINK-2278,2021-024BB,2023-02-02T03:44:11.941728,15.06397099,.0001801,53.0548,16.2760,92.2804,267.8392,0,U,48026,999,10347,.42311E-4,.349E-5,0
STARLINK-2300,2021-024BC,2023-02-02T04:22:00.683040,15.06394581,.0001274,53.0558,351.1520,99.0579,261.0554,0,U,48027,999,10383,-.28964E-4,-.713E-5,0
STARLINK-2264,2021-024BD,2023-02-01T16:50:04.796160,15.06393504,.0001489,53.0550,308.7124,96.5616,263.5542,0,U,48028,999,10438,-.11524E-3,-.1997E-4,0
STARLINK-2299,2021-024BE,2023-02-01T11:46:48.042048,15.06423420,.0001338,53.0564,14.2537,83.6598,276.4543,0,U,48029,999,10398,.14772E-2,.21804E-3,0
STARLINK-2268,2021-024BF,2023-02-02T02:45:48.830400,15.06391424,.0001817,53.0547,16.4609,94.4313,265.6883,0,U,48030,999,10347,-.13761E-3,-.233E-4,0
STARLINK-2267,2021-024BG,2023-02-02T00:29:47.561568,15.06411376,.0001368,53.0507,261.8833,93.7926,266.3220,0,U,48031,999,10507,.16872E-3,.2233E-4,0
STARLINK-2286,2021-024BJ,2023-02-02T03:26:16.810368,15.06395199,.0001264,53.0526,11.3335,89.5301,270.5833,0,U,48033,999,10355,.19694E-4,.12E-6,0
STARLINK-2288,2021-024BK,2023-02-02T02:17:16.915488,15.06392626,.0001672,53.0531,11.5478,96.1750,263.9429,0,U,48034,999,10354,-.87958E-4,-.1591E-4,0
STARLINK-2295,2021-024BM,2023-02-02T02:27:54.262368,15.06392388,.0001476,53.0541,11.5164,97.1413,262.9744,0,U,48036,999,10354,-.20453E-4,-.586E-5,0
BCCSAT-1,2021-022AK,2023-02-01T06:18:09.675072,15.13237391,.0016199,97.5141,293.5579,70.7452,289.5530,0,U,48041,999,10138,.68628E-3,.1218E-3,0
ONEWEB-0115,2021-025A,2023-02-01T23:50:06.479520,13.13471180,.0001585,87.9039,204.8844,86.4270,273.7040,0,U,48042,999,9198,.77325E-3,.295E-5,0
ONEWEB-0152,2021-025B,2023-02-01T11:20:30.969888,13.13468268,.000138,87.9034,204.9767,89.3515,270.7772,0,U,48043,999,9186,.8613E-3,.327E-5,0
ONEWEB-0153,2021-025C,2023-02-01T12:36:41.312160,13.13469323,.0001434,87.9036,204.9543,96.8056,263.3236,0,U,48044,999,9186,.37172E-3,.148E-5,0
ONEWEB-0154,2021-025D,2023-02-01T12:33:39.000384,13.13471248,.0001457,87.8984,204.9694,95.5512,264.5784,0,U,48045,999,9182,.14431E-3,.65E-6,0
ONEWEB-0116,2021-025E,2023-02-01T11:44:54.756960,13.13471765,.000177,87.9000,204.9807,86.2405,273.8926,0,U,48046,999,9196,-.2824E-3,-.9E-6,0
ONEWEB-0150,2021-025F,2023-02-01T23:53:08.837088,13.13468936,.0001519,87.9030,204.8761,102.9753,257.1546,0,U,48047,999,9192,.6164E-3,.238E-5,0
ONEWEB-0107,2021-025G,2023-02-01T23:56:12.057792,13.13471192,.0001351,87.9029,204.8747,112.4175,247.7097,0,U,48048,999,9190,.79906E-3,.305E-5,0
ONEWEB-0101,2021-025H,2023-02-02T00:54:04.345056,13.13469308,.0001258,87.9034,204.8730,99.0343,261.0928,0,U,48049,999,9188,-.18991E-2,-.681E-5,0
ONEWEB-0113,2021-025J,2023-02-01T13:22:24.070656,13.13471211,.000156,87.9036,205.0027,86.1257,274.0050,0,U,48050,999,9190,.29551E-3,.121E-5,0
ONEWEB-0112,2021-025K,2023-02-01T13:04:06.986784,13.13468086,.0001582,87.9029,204.9629,94.4149,265.7161,0,U,48051,999,9191,.95515E-3,.362E-5,0
ONEWEB-0156,2021-025L,2023-02-01T13:19:20.866368,13.13470125,.0001504,87.9038,204.9853,95.2770,264.8530,0,U,48052,999,9189,.45053E-3,.177E-5,0
ONEWEB-0161,2021-025M,2023-02-01T14:29:27.468096,13.13467064,.0001386,87.9041,204.9578,102.3510,257.7775,0,U,48053,999,9183,-.44367E-3,-.149E-5,0
ONEWEB-0158,2021-025N,2023-02-01T11:47:56.451840,13.13471753,.0001726,87.9040,205.0057,83.5096,276.6230,0,U,48054,999,9194,-.35609E-3,-.117E-5,0
ONEWEB-0157,2021-025P,2023-02-01T21:29:55.906080,13.13471940,.0001467,87.9059,204.8919,106.9160,253.2130,0,U,48055,999,9194,-.43423E-3,-.146E-5,0
ONEWEB-0162,2021-025Q,2023-02-01T13:16:18.660864,13.13469634,.000157,87.9032,204.9617,94.9197,265.2111,0,U,48056,999,9186,.43803E-3,.173E-5,0
ONEWEB-0155,2021-025R,2023-02-01T11:57:03.764736,13.13468472,.0001427,87.9033,204.9754,94.3150,265.8142,0,U,48057,999,9199,-.14442E-2,-.515E-5,0
ONEWEB-0149,2021-025S,2023-02-01T12:27:32.975424,13.13469386,.0001917,87.9033,204.9704,104.6408,255.4934,0,U,48058,999,9180,-.20366E-3,-.62E-6,0
ONEWEB-0148,2021-025T,2023-02-01T13:25:26.129280,13.13467432,.0001964,87.9034,204.9681,118.4935,241.6392,0,U,48059,999,9193,-.77554E-4,-.16E-6,0
ONEWEB-0160,2021-025U,2023-02-01T12:00:06.750432,13.13468524,.0002319,87.9040,204.9789,68.8941,291.2435,0,U,48060,999,9187,-.1378E-2,-.49E-5,0
ONEWEB-0163,2021-025V,2023-02-01T11:38:48.441696,13.13469428,.0001296,87.9035,204.9701,112.0684,248.0582,0,U,48061,999,9199,.21935E-4,.21E-6,0
ONEWEB-0159,2021-025W,2023-02-01T13:13:15.864384,13.13469217,.0001414,87.9038,204.9744,113.9815,246.1462,0,U,48062,999,9192,.64167E-3,.247E-5,0
ONEWEB-0164,2021-025X,2023-02-01T12:45:50.474016,13.13467885,.0001326,87.9032,204.9565,85.5121,274.6160,0,U,48063,999,9191,.11799E-2,.444E-5,0
ONEWEB-0167,2021-025Y,2023-02-01T11:40:22.323936,13.13468149,.0001394,87.9034,204.9725,108.1978,251.9303,0,U,48064,999,9188,-.17163E-3,-.5E-6,0
ONEWEB-0166,2021-025Z,2023-02-01T12:12:18.847872,13.13469479,.0001579,87.9032,204.9710,104.6452,255.4852,0,U,48065,999,9196,-.55936E-3,-.192E-5,0
ONEWEB-0151,2021-025AA,2023-02-02T01:03:13.884480,13.13469562,.0001386,87.9031,204.8668,84.4682,275.6605,0,U,48066,999,9198,-.99462E-3,-.35E-5,0
ONEWEB-0170,2021-025AB,2023-02-01T21:32:59.678880,13.13468105,.0001573,87.8970,204.8938,63.5807,296.5483,0,U,48067,999,9191,-.37431E-3,-.124E-5,0
